CELESTIS-02 & TAURUS R/B
1 25160U 98007D   24232.44363747  .00000429  00000+0  24733-3 0  9995
2 25160 108.0065  66.7101 0062574 194.1488 225.1269 14.22055035375713
